TIANMU-1 20             
1 58661U 23208B   26203.89833535  .00009341  00000+0  29294-3 0  9993
2 58661  97.4466 321.0711 0007064 184.0427 176.0759 15.33253388142892
TIANMU-1 21             
1 58662U 23208C   26203.89700118  .00011380  00000+0  33020-3 0  9992
2 58662  97.4526 323.9078 0007399 176.8220 183.3072 15.35657922143049
TIANMU-1 22             
1 58663U 23208D   26203.94785625  .00008662  00000+0  28717-3 0  9991
2 58663  97.4520 320.3532 0003466 187.4770 172.6420 15.31508064142808
TIANMU-1 15             
1 58700U 24004A   26203.94563844  .00006287  00000+0  24014-3 0  9992
2 58700  97.4678  30.1377 0006703 197.5862 162.5145 15.26972450141234
TIANMU-1 16             
1 58701U 24004B   26203.93457977  .00005935  00000+0  22622-3 0  9993
2 58701  97.4626  29.3391 0004984 211.1554 148.9390 15.27074950141233
TIANMU-1 17             
1 58702U 24004C   26203.98560038  .00006121  00000+0  23324-3 0  9990
2 58702  97.4652  29.8881 0004400 216.0534 144.0409 15.27073609141235
TIANMU-1 18             
1 58703U 24004D   26203.96212530  .00005770  00000+0  22061-3 0  9996
2 58703  97.4670  30.1281 0004463 192.7108 167.4019 15.26987003141238
INSAT-3DS               
1 58990U 24033A   26203.70186971 -.00000151  00000+0  00000+0 0  9991
2 58990   0.0722 262.8454 0001381 221.0262 151.2875  1.00270628 47425
METEOR-M2 4             
1 59051U 24039A   26203.91713157  .00000005  00000+0  21766-4 0  9995
2 59051  98.7031 162.7702 0008195  69.5846 290.6212 14.22432744124345
GOES 19                 
1 60133U 24119A   26203.90312535 -.00000244  00000+0  00000+0 0  9990
2 60133   0.0202 126.1702 0000313  41.7618  22.6433  1.00272176  7320
MTG-S1                  
1 64723U 25143A   26203.92933429 -.00000002  00000+0  00000+0 0  9992
2 64723   0.5805 346.8369 0003172 255.9324  32.1378  1.00275914  3774
METOP-SGA1              
1 65159U 25172A   26203.57741144  .00000012  00000+0  25416-4 0  9993
2 65159  98.6623 262.5771 0001464  91.4721 268.6625 14.21503300 48816
FENGYUN 3H              
1 65815U 25219A   26203.27409663  .00000022  00000+0  30668-4 0  9994
2 65815  98.6770 143.3622 0000990  63.3834 296.7444 14.19925591 42367
