OBJECT_NAME,OBJECT_ID,EPOCH,MEAN_MOTION,ECCENTRICITY,INCLINATION,RA_OF_ASC_NODE,ARG_OF_PERICENTER,MEAN_ANOMALY,EPHEMERIS_TYPE,CLASSIFICATION_TYPE,NORAD_CAT_ID,ELEMENT_SET_NO,REV_AT_EPOCH,BSTAR,MEAN_MOTION_DOT,MEAN_MOTION_DDOT
TIANMU-1 20,2023-208B,2026-07-22T21:33:36.174240,15.33253388,.00070642,97.4466,321.0711,184.0427,176.0759,0,U,58661,999,14289,.29293654E-3,.9341E-4,0
TIANMU-1 21,2023-208C,2026-07-22T21:31:40.901952,15.35657922,.00073999,97.4526,323.9078,176.8220,183.3072,0,U,58662,999,14304,.33020147E-3,.1138E-3,0
TIANMU-1 22,2023-208D,2026-07-22T22:44:54.780000,15.31508064,.00034669,97.4520,320.3532,187.4770,172.6420,0,U,58663,999,14280,.28716777E-3,.8662E-4,0
TIANMU-1 15,2024-004A,2026-07-22T22:41:43.161216,15.26972450,.0006703,97.4678,30.1377,197.5862,162.5145,0,U,58700,999,14123,.24013581E-3,.6287E-4,0
TIANMU-1 16,2024-004B,2026-07-22T22:25:47.692128,15.27074950,.00049842,97.4626,29.3391,211.1554,148.9390,0,U,58701,999,14123,.2262198E-3,.5935E-4,0
TIANMU-1 17,2024-004C,2026-07-22T23:39:15.872832,15.27073609,.00044007,97.4652,29.8881,216.0534,144.0409,0,U,58702,999,14123,.23324353E-3,.6121E-4,0
TIANMU-1 18,2024-004D,2026-07-22T23:05:27.625920,15.26987003,.00044634,97.4670,30.1281,192.7108,167.4019,0,U,58703,999,14123,.22061079E-3,.577E-4,0
INSAT-3DS,2024-033A,2026-07-22T16:50:41.542944,1.00270628,.00013819,0.0722,262.8454,221.0262,151.2875,0,U,58990,999,4742,0,-.151E-5,0
METEOR-M2 4,2024-039A,2026-07-22T22:00:40.167648,14.22432744,.00081954,98.7031,162.7702,69.5846,290.6212,0,U,59051,999,12434,.21766167E-4,.5E-7,0
GOES 19,2024-119A,2026-07-22T21:40:30.030240,1.00272176,.00003136,0.0202,126.1702,41.7618,22.6433,0,U,60133,999,732,0,-.244E-5,0
MTG-S1,2025-143A,2026-07-22T22:18:14.482656,1.00275914,.00031721,0.5805,346.8369,255.9324,32.1378,0,U,64723,999,377,0,-.2E-7,0
METOP-SGA1,2025-172A,2026-07-22T13:51:28.348416,14.21503300,.00014646,98.6623,262.5771,91.4721,268.6625,0,U,65159,999,4881,.25415706E-4,.12E-6,0
FENGYUN 3H,2025-219A,2026-07-22T06:34:41.948832,14.19925591,.00009909,98.6770,143.3622,63.3834,296.7444,0,U,65815,999,4236,.3066786E-4,.22E-6,0
